[
    {
        "Altitude(m)": 617710.6273179462,
        "Argument of Periapsis(deg)": 0.0,
        "Eccentricity": 0.0,
        "Inclination(deg)": 60.0,
        "Latitude(deg)": -41.10262672722615,
        "Longitude(deg)": 89.96667085816296,
        "Mean Anomaly(deg)": -49.09089999999989,
        "RAAN(deg)": 220.00000000000003,
        "Satellite Name": "Test1 987",
        "Satellite Number": 987,
        "Semi-Major Axis(m)": 6980739.136638005,
        "Time(s)": 0
    },
    {
        "Altitude(m)": 617517.9256903548,
        "Argument of Periapsis(deg)": 0.00010418945913296404,
        "Eccentricity": 0.0,
        "Inclination(deg)": 60.0,
        "Latitude(deg)": -40.63683327090889,
        "Longitude(deg)": 90.46346355126023,
        "Mean Anomaly(deg)": -48.47079385453804,
        "RAAN(deg)": 219.99957995086027,
        "Satellite Name": "Test1 987",
        "Satellite Number": 987,
        "Semi-Major Axis(m)": 6980739.136638005,
        "Time(s)": 10
    }
]